GOES 10 [-]             
1 24786U 97019A   17284.58482673 -.00000229  00000-0  00000+0 0  9991
2 24786   9.4227  42.0931 0031089 167.8793 192.1957  0.99126849 74636
GOES 11 [-]             
1 26352U 00022A   17285.31947794 -.00000231  00000-0  00000+0 0  9995
2 26352   5.1875  72.8478 0006734 159.2647  75.1336  0.99045910 63603
GOES 12 [-]             
1 26871U 01031A   17285.40107258  .00000040  00000-0  00000+0 0  9992
2 26871   6.5397  59.1335 0010259 223.7875 102.1829  0.99136862 59307
GOES 13 [+]             
1 29155U 06018A   17285.14901644 -.00000272  00000-0  00000+0 0  9990
2 29155   0.0954 107.6677 0001896   5.2940 247.0817  1.00274234 41737
GOES 14 [S]             
1 35491U 09033A   17285.23134933 -.00000115  00000-0  00000+0 0  9995
2 35491   0.3035 274.6586 0010565 307.8885 137.3942  1.00272617 30377
GOES 15 [+]             
1 36411U 10008A   17285.31738193  .00000067  00000-0  00000+0 0  9994
2 36411   0.2768 275.1535 0004852 278.5618 166.2945  1.00276191 27902
GOES 16 [S]             
1 41866U 16071A   17285.18980675 -.00000205  00000-0  00000+0 0  9994
2 41866   0.0317  58.4900 0001303 207.4673  94.0512  1.00270885  3320
GORIZONT 1 [-]          
1 11158U 78118A   17284.38615267 -.00000217  00000-0  00000+0 0  9991
2 11158  15.1909 264.5628 3502064 195.9953 149.2424  1.00297064 91125
GORIZONT 2 [-]          
1 11440U 79062A   17283.82579079 -.00000158  00000-0  00000+0 0  9996
2 11440  12.6954 322.2571 0007353 263.6952 171.3809  1.00239684106203
GORIZONT 3 [-]          
1 11648U 79105A   17283.67694132  .00000113  00000-0  00000+0 0  9995
2 11648  12.8080 323.4492 0011800 186.3470 154.7143  1.00295360 90658
GORIZONT 4 [-]          
1 11841U 80049A   17284.85535472 -.00000210  00000-0  00000+0 0  9990
2 11841  13.8110 327.9390 0006463 280.7357  78.9578  0.98631196202286
GORIZONT 5 [-]          
1 13092U 82020A   17284.97268139 -.00000209  00000-0  00000+0 0  9995
2 13092  14.5719 332.7371 0032018 172.2450 184.5356  0.98532841 90343
GORIZONT 6 [-]          
1 13624U 82103A   17285.12636177 -.00000290  00000-0  00000+0 0  9997
2 13624  13.4343 332.6177 0003779 257.2797 126.9477  1.00184975 89143
GORIZONT 7 [-]          
1 14160U 83066A   17284.84976476 -.00000165  00000-0  00000+0 0  9990
2 14160  14.6953 340.4655 0015284 271.8617  88.7656  0.98348827123613
GORIZONT 8 [-]          
1 14532U 83118A   17285.08179166 -.00000086  00000-0  00000+0 0  9991
2 14532  14.7677 342.0598 0023101 105.8094 359.9206  0.98269425 89381
GORIZONT 9 [-]          
1 14940U 84041A   17283.62063406 -.00000280  00000-0  00000-0 0  9994
2 14940  14.0051 340.6708 0006487 226.1088 128.5076  1.00303027 90139
GORIZONT 10 [-]         
1 15144U 84078A   17285.05561453 -.00000265  00000-0  00000+0 0  9997
2 15144  14.0398 341.6335 0005649 274.0171 111.8139  1.00259086122823
GORIZONT 11 [-]         
1 15484U 85007A   17285.29906069 -.00000215  00000-0  00000+0 0  9994
2 15484  14.1007 343.4201 0002719 261.9733 156.1971  1.00163225120838
GORIZONT 12 [-]         
1 16769U 86044A   17283.62063406 -.00000258  00000-0  00000+0 0  9994
2 16769  14.4016 348.3222 0006536 250.9787  95.3930  1.00207659115476
GORIZONT 13 [-]         
1 17083U 86090A   17284.89840951 -.00000157  00000-0  00000-0 0  9992
2 17083  15.8953 354.3436 0019538 282.7632  75.2226  0.96726573 87976
GORIZONT 14 [-]         
1 17969U 87040A   17285.26566821 -.00000080  00000-0  00000+0 0  9998
2 17969  15.3888 346.6388 0026769 137.1014 226.2126  0.97657842 88894
GORIZONT 15 [-]         
1 19017U 88028A   17284.94563274 -.00000187  00000-0  00000+0 0  9992
2 19017  15.9358 357.6406 0031716 116.1736 249.4044  0.97829676 88473
GORIZONT 16 [-]         
1 19397U 88071A   17284.89354738  .00000025  00000-0  00000-0 0  9999
2 19397  14.8389 356.5488 0012773 344.2704  18.6106  0.99981670106544
GORIZONT 17 [-]         
1 19765U 89004A   17284.43430740 -.00000271  00000-0  00000-0 0  9997
2 19765  15.1681 359.5018 0016174  89.6985  52.5850  0.99067933104160
GORIZONT 18 [-]         
1 20107U 89052A   17283.92549488 -.00000147  00000-0  00000+0 0  9996
2 20107  15.1094   0.8426 0040072 268.5701  87.9321  0.99403922102881
GORIZONT 19 [-]         
1 20263U 89081A   17284.78379407  .00000082  00000-0  00000-0 0  9996
2 20263  14.8782   0.2763 0007650 238.4116 110.7921  1.00328691 15542
GORIZONT 20 [-]         
1 20659U 90054A   17284.71005396 -.00000115  00000-0  00000+0 0  9990
2 20659  15.1000   3.2001 0005684 184.3361 161.7447  1.00322518 99905
GORIZONT 21 [-]         
1 20923U 90094A   17284.88305764 -.00000368  00000-0  00000+0 0  9998
2 20923  15.0486   3.9749 0007044 216.4281 248.2758  1.00213123 98650
GORIZONT 22 [-]         
1 20953U 90102A   17284.89354738  .00000097  00000-0  00000-0 0  9996
2 20953  14.9873   4.2774 0007637 272.1102  89.1470  1.00337004 98582
GORIZONT 23 [-]         
1 21533U 91046A   17283.73660524 -.00000004  00000-0  00000+0 0  9992
2 21533  15.4532   8.0252 0010225 253.3459 104.8673  0.98905647 89367
GORIZONT 24 [-]         
1 21759U 91074A   17284.32712226 -.00000030  00000-0  00000+0 0  9995
2 21759  15.4702   9.6576 0021032 194.5420 195.3158  0.98441689 93824
GORIZONT 25 [-]         
1 21922U 92017A   17285.38942602  .00000044  00000-0  00000+0 0  9999
2 21922  15.0414   9.3753 0023151  24.0711 325.4171  0.99854124 93284
GORIZONT 26 [-]         
1 22041U 92043A   17283.97337896 -.00000215  00000-0  00000+0 0  9998
2 22041  15.0695  11.0622 0034794 195.8736 157.8219  0.99246242 92018
GORIZONT 27 [-]         
1 22245U 92082A   17284.47554722 -.00000194  00000-0  00000+0 0  9998
2 22245  14.9934  11.1743 0015032 294.4244 155.2121  1.00147373 95382
GORIZONT 28 [-]         
1 22880U 93069A   17284.65297160  .00000041  00000-0  00000+0 0  9999
2 22880  14.8472  14.5943 0028300  90.3578  27.9561  0.99648558 87547
GORIZONT 29 [-]         
1 22907U 93072A   17283.59285591 -.00000339  00000-0  00000-0 0  9992
2 22907  14.7917  14.2950 0014706 274.5221  80.9302  1.00156407 87419
GORIZONT 30 [-]         
1 23108U 94030A   17284.39420892  .00000010  00000-0  00000-0 0  9990
2 23108  14.7289  15.2869 0006475 227.9998  98.3521  1.00268187 85673
GORIZONT 31 [-]         
1 23775U 96005A   17284.81204956 -.00000140  00000-0  00000+0 0  9996
2 23775  14.1717  20.8776 0020688 169.8603 291.3022  0.99901563 79371
GORIZONT 32 [-]         
1 23880U 96034A   17283.83163259 -.00000326  00000-0  00000-0 0  9993
2 23880  14.0752  21.5159 0012362 275.8652 124.4162  1.00150853 78282
GORIZONT 33 [-]         
1 26372U 00029A   17284.90882743  .00000112  00000-0  00000-0 0  9998
2 26372  11.9814  31.1508 0003093 222.9457 136.6167  1.00171173 63639
GPS BIIR-2  (PRN 13)    
1 24876U 97035A   17285.23483520 -.00000008  00000-0  00000+0 0  9999
2 24876  55.5280 222.5072 0033057  99.0056 261.3694  2.00565177148176
GPS BIIR-3  (PRN 11)    
1 25933U 99055A   17285.32705919 -.00000010  00000-0  00000+0 0  9990
2 25933  51.7161  72.5118 0168148  97.7554 256.8650  2.00555753131991
GPS BIIR-4  (PRN 20)    
1 26360U 00025A   17285.45580977  .00000007  00000-0  00000+0 0  9998
2 26360  53.1365 149.9986 0043792  96.9293  93.4537  2.00554536127686
GPS BIIR-5  (PRN 28)    
1 26407U 00040A   17285.43083022 -.00000066  00000-0  00000+0 0  9990
2 26407  56.5917 340.5770 0201600 270.6366 185.2331  2.00565581126362
GPS BIIR-6  (PRN 14)    
1 26605U 00071A   17285.27007025 -.00000011  00000-0  00000+0 0  9995
2 26605  55.0996 220.1924 0095330 248.8695 358.6651  2.00559898123968
GPS BIIR-7  (PRN 18)    
1 26690U 01004A   17285.43338838  .00000003  00000-0  00000+0 0  9993
2 26690  53.0565 152.9301 0183417 258.2806 220.1169  2.00567594122368
GPS BIIR-8  (PRN 16)    
1 27663U 03005A   17285.22284473 -.00000065  00000-0  00000+0 0  9998
2 27663  56.6592 340.3309 0091996  24.9270  34.3510  2.00552054107725
GPS BIIR-9  (PRN 21)    
1 27704U 03010A   17285.13304840  .00000024  00000-0  00000+0 0  9995
2 27704  53.9312  93.3675 0242143 266.3203  55.0943  2.00572972106520
GPS BIIR-10 (PRN 22)    
1 28129U 03058A   17284.93050601  .00000004  00000-0  00000+0 0  9997
2 28129  52.9473 152.9284 0074188 264.5766  94.6598  2.00559306101215
GPS BIIR-11 (PRN 19)    
1 28190U 04009A   17285.02405110 -.00000054  00000-0  00000+0 0  9998
2 28190  56.0654  41.2988 0097588  61.3055  10.8401  2.00562842 99390
GPS BIIR-12 (PRN 23)    
1 28361U 04023A   17285.40890420 -.00000018  00000-0  00000+0 0  9998
2 28361  54.0897 215.1805 0120221 222.2640  37.6577  2.00563757 97481
GPS BIIR-13 (PRN 02)    
1 28474U 04045A   17285.39259674  .00000026  00000-0  00000+0 0  9993
2 28474  54.3074  92.8741 0173500 248.5198   3.0898  2.00571927 94851
GPS BIIRM-1 (PRN 17)    
1 28874U 05038A   17285.42993253 -.00000061  00000-0  00000+0 0  9992
2 28874  56.2172  38.5612 0122077 254.8248 132.2168  2.00561025 88258
GPS BIIRM-2 (PRN 31)    
1 29486U 06042A   17285.27678382  .00000016  00000-0  00000+0 0  9993
2 29486  55.3281 277.6009 0086434 345.2165 207.7940  2.00548957 80969
GPS BIIRM-3 (PRN 12)    
1 29601U 06052A   17284.94917003 -.00000064  00000-0  00000+0 0  9996
2 29601  56.6330 339.2595 0063440  51.0280 309.5929  2.00560180 79872
GPS BIIRM-4 (PRN 15)    
1 32260U 07047A   17284.76632366 -.00000012  00000-0  00000+0 0  9995
2 32260  53.2152 211.4515 0096050  34.1368 326.4925  2.00568264 73258
GPS BIIRM-5 (PRN 29)    
1 32384U 07062A   17285.15715535 -.00000058  00000-0  00000+0 0  9993
2 32384  56.2843  39.1616 0002990  23.8786  37.7994  2.00577721 71996
GPS BIIRM-6 (PRN 07)    
1 32711U 08012A   17285.17447713  .00000016  00000-0  00000+0 0  9998
2 32711  55.0580 276.9439 0112162 214.6690 144.5981  2.00558300 70170
GPS BIIRM-8 (PRN 05)    
1 35752U 09043A   17285.30710419  .00000004  00000-0  00000+0 0  9999
2 35752  54.2674 154.7689 0051126  32.4312  88.0921  2.00575124 59763
